STARLINK-30829          
1 58158U 23166J   26068.67644555  .00007154  00000+0  25314-3 0  9993
2 58158  53.1604 219.9289 0001359 111.1626 248.9520 15.30237339133175
KUIPER-00175            
1 67135U 25301C   26068.97960463  .00019968  00000+0  66732-3 0  9998
2 67135  51.8781  63.6978 0002279  50.5695 309.5490 15.30996371 13854
